[{"OBJECT_NAME":"STARLINK-31996","OBJECT_ID":"2024-117K","EPOCH":"2026-03-09T07:45:46.003968","MEAN_MOTION":15.30178795,"ECCENTRICITY":0.00012672,"INCLINATION":53.1613,"RA_OF_ASC_NODE":38.5903,"ARG_OF_PERICENTER":87.5677,"MEAN_ANOMALY":272.5469,"EPHEMERIS_TYPE":0,"CLASSIFICATION_TYPE":"U","NORAD_CAT_ID":60100,"ELEMENT_SET_NO":999,"REV_AT_EPOCH":9683,"BSTAR":3.5447249e-5,"MEAN_MOTION_DOT":6.9e-6,"MEAN_MOTION_DDOT":0},{"OBJECT_NAME":"TOMORROW-S1","OBJECT_ID":"2024-149M","EPOCH":"2026-03-09T17:23:34.533600","MEAN_MOTION":15.31198363,"ECCENTRICITY":0.00018188,"INCLINATION":97.3791,"RA_OF_ASC_NODE":149.6044,"ARG_OF_PERICENTER":207.204,"MEAN_ANOMALY":152.9106,"EPHEMERIS_TYPE":0,"CLASSIFICATION_TYPE":"U","NORAD_CAT_ID":60479,"ELEMENT_SET_NO":999,"REV_AT_EPOCH":8686,"BSTAR":0.0002885603,"MEAN_MOTION_DOT":8.62e-5,"MEAN_MOTION_DDOT":0}]
